{"type": "FeatureCollection", "features": [ {"type": "Feature", "properties": {"norad_id": 43437, "name": "SENTINEL-3B", "group": "resource", "lat": -46.26328600854694, "lon": 69.79715272457703, "alt_km": 810.2770227838064, "timestamp": "2025-12-21T14:40:47.568373+00:00", "meta": {"OBJECT_NAME": "SENTINEL-3B", "OBJECT_ID": "2018-039A", "EPOCH": "2025-12-21T03:07:03.946656", "MEAN_MOTION": 14.26736979, "ECCENTRICITY": 0.00016313, "INCLINATION": 98.6257, "RA_OF_ASC_NODE": 60.1946, "ARG_OF_PERICENTER": 93.5044, "MEAN_ANOMALY": 266.6323, "EPHEMERIS_TYPE": 0, "CLASSIFICATION_TYPE": "U", "NORAD_CAT_ID": 43437, "ELEMENT_SET_NO": 999, "REV_AT_EPOCH": 39873, "BSTAR": 6.0794922e-05, "MEAN_MOTION_DOT": 1.03e-06, "MEAN_MOTION_DDOT": 0}, "tle": {"line1": "1 43437U 18039A   25355.12990679  .00000103  00000+0  60795-4 0  9999", "line2": "2 43437  98.6257  60.1946 0001631  93.5044 266.6323 14.26736979398734"}}, "geometry": {"type": "Point", "coordinates": [69.79715272457703, -46.26328600854694]}}, {"type": "Feature", "properties": {"norad_id": 43461, "name": "GAOFEN-5 01", "group": "resource", "lat": -62.51174362072237, "lon": -24.6976339719265, "alt_km": 698.640615240296, "timestamp": "2025-12-21T14:40:47.568383+00:00", "meta": {"OBJECT_NAME": "GAOFEN-5 01", "OBJECT_ID": "2018-043A", "EPOCH": "2025-12-21T03:27:39.430368", "MEAN_MOTION": 14.60418022, "ECCENTRICITY": 5.158e-05, "INCLINATION": 98.4338, "RA_OF_ASC_NODE": 318.2586, "ARG_OF_PERICENTER": 283.9485, "MEAN_ANOMALY": 76.1657, "EPHEMERIS_TYPE": 0, "CLASSIFICATION_TYPE": "U", "NORAD_CAT_ID": 43461, "ELEMENT_SET_NO": 999, "REV_AT_EPOCH": 40570, "BSTAR": 7.4417752e-05, "MEAN_MOTION_DOT": 3.12e-06, "MEAN_MOTION_DDOT": 0}, "tle": {"line1": "1 43461U 18043A   25355.14420637  .00000312  00000+0  74418-4 0  9994", "line2": "2 43461  98.4338 318.2586 0000515 283.9485  76.1657 14.60418022405704"}}, "geometry": {"type": "Point", "coordinates": [-24.6976339719265, -62.51174362072237]}}, {"type": "Feature", "properties": {"norad_id": 43484, "name": "GAOFEN-6", "group": "resource", "lat": 81.56765882592173, "lon": -8.084722952198813, "alt_km": 626.8436197852607, "timestamp": "2025-12-21T14:40:47.568393+00:00", "meta": {"OBJECT_NAME": "GAOFEN-6", "OBJECT_ID": "2018-048A", "EPOCH": "2025-12-21T06:09:26.319168", "MEAN_MOTION": 14.76578826, "ECCENTRICITY": 0.00128022, "INCLINATION": 97.8027, "RA_OF_ASC_NODE": 59.2377, "ARG_OF_PERICENTER": 38.5462, "MEAN_ANOMALY": 321.666, "EPHEMERIS_TYPE": 0, "CLASSIFICATION_TYPE": "U", "NORAD_CAT_ID": 43484, "ELEMENT_SET_NO": 999, "REV_AT_EPOCH": 40713, "BSTAR": 3.2434875e-05, "MEAN_MOTION_DOT": 1.77e-06, "MEAN_MOTION_DDOT": 0}, "tle": {"line1": "1 43484U 18048A   25355.25655462  .00000177  00000+0  32435-4 0  9994", "line2": "2 43484  97.8027  59.2377 0012802  38.5462 321.6660 14.76578826407135"}}, "geometry": {"type": "Point", "coordinates": [-8.084722952198813, 81.56765882592173]}}, {"type": "Feature", "properties": {"norad_id": 43585, "name": "GAOFEN-11 01", "group": "resource", "lat": 52.892210806376646, "lon": 48.91432481207438, "alt_km": 415.629473942764, "timestamp": "2025-12-21T14:40:47.568403+00:00", "meta": {"OBJECT_NAME": "GAOFEN-11 01", "OBJECT_ID": "2018-063A", "EPOCH": "2025-12-21T06:41:59.754048", "MEAN_MOTION": 15.49443606, "ECCENTRICITY": 0.00038771, "INCLINATION": 97.1553, "RA_OF_ASC_NODE": 58.1434, "ARG_OF_PERICENTER": 268.7048, "MEAN_ANOMALY": 91.3759, "EPHEMERIS_TYPE": 0, "CLASSIFICATION_TYPE": "U", "NORAD_CAT_ID": 43585, "ELEMENT_SET_NO": 999, "REV_AT_EPOCH": 41274, "BSTAR": 0.00023160515, "MEAN_MOTION_DOT": 0.00012644, "MEAN_MOTION_DDOT": 0}, "tle": {"line1": "1 43585U 18063A   25355.27916382  .00012644  00000+0  23161-3 0  9993", "line2": "2 43585  97.1553  58.1434 0003877 268.7048  91.3759 15.49443606412746"}}, "geometry": {"type": "Point", "coordinates": [48.91432481207438, 52.892210806376646]}}, {"type": "Feature", "properties": {"norad_id": 43613, "name": "ICESAT-2", "group": "resource", "lat": -15.56861777182907, "lon": 62.5723535972297, "alt_km": 485.54005417419467, "timestamp": "2025-12-21T14:40:47.568413+00:00", "meta": {"OBJECT_NAME": "ICESAT-2", "OBJECT_ID": "2018-070A", "EPOCH": "2025-12-21T05:58:11.534304", "MEAN_MOTION": 15.28246235, "ECCENTRICITY": 0.00029307, "INCLINATION": 92.0046, "RA_OF_ASC_NODE": 243.0336, "ARG_OF_PERICENTER": 120.3917, "MEAN_ANOMALY": 239.7622, "EPHEMERIS_TYPE": 0, "CLASSIFICATION_TYPE": "U", "NORAD_CAT_ID": 43613, "ELEMENT_SET_NO": 999, "REV_AT_EPOCH": 40528, "BSTAR": 0.00034876926, "MEAN_MOTION_DOT": 9.597e-05, "MEAN_MOTION_DDOT": 0}, "tle": {"line1": "1 43613U 18070A   25355.24874461  .00009597  00000+0  34877-3 0  9990", "line2": "2 43613  92.0046 243.0336 0002930 120.3917 239.7622 15.28246235405286"}}, "geometry": {"type": "Point", "coordinates": [62.5723535972297, -15.56861777182907]}}, {"type": "Feature", "properties": {"norad_id": 43719, "name": "HYSIS", "group": "resource", "lat": -8.66368168921473, "lon": -122.68290808874613, "alt_km": 638.1180314501771, "timestamp": "2025-12-21T14:40:47.568423+00:00", "meta": {"OBJECT_NAME": "HYSIS", "OBJECT_ID": "2018-096A", "EPOCH": "2025-12-21T05:42:33.118848", "MEAN_MOTION": 14.78666256, "ECCENTRICITY": 0.00010022, "INCLINATION": 98.0093, "RA_OF_ASC_NODE": 58.1745, "ARG_OF_PERICENTER": 53.2735, "MEAN_ANOMALY": 306.8568, "EPHEMERIS_TYPE": 0, "CLASSIFICATION_TYPE": "U", "NORAD_CAT_ID": 43719, "ELEMENT_SET_NO": 999, "REV_AT_EPOCH": 38112, "BSTAR": 0.00010511991, "MEAN_MOTION_DOT": 7.18e-06, "MEAN_MOTION_DDOT": 0}, "tle": {"line1": "1 43719U 18096A   25355.23788332  .00000718  00000+0  10512-3 0  9991", "line2": "2 43719  98.0093  58.1745 0001002  53.2735 306.8568 14.78666256381125"}}, "geometry": {"type": "Point", "coordinates": [-122.68290808874613, -8.66368168921473]}}, {"type": "Feature", "properties": {"norad_id": 43783, "name": "KAZSTSAT", "group": "resource", "lat": 4.600983614334542, "lon": 29.811058033180903, "alt_km": 570.1329340559341, "timestamp": "2025-12-21T14:40:47.568433+00:00", "meta": {"OBJECT_NAME": "KAZSTSAT", "OBJECT_ID": "2018-099AB", "EPOCH": "2025-12-21T01:50:44.888352", "MEAN_MOTION": 14.99364891, "ECCENTRICITY": 0.00060238, "INCLINATION": 97.4527, "RA_OF_ASC_NODE": 29.903, "ARG_OF_PERICENTER": 292.687, "MEAN_ANOMALY": 67.3717, "EPHEMERIS_TYPE": 0, "CLASSIFICATION_TYPE": "U", "NORAD_CAT_ID": 43783, "ELEMENT_SET_NO": 999, "REV_AT_EPOCH": 38461, "BSTAR": 1.8043656e-05, "MEAN_MOTION_DOT": 1.65e-06, "MEAN_MOTION_DDOT": 0}, "tle": {"line1": "1 43783U 18099AB  25355.07690843  .00000165  00000+0  18044-4 0  9991", "line2": "2 43783  97.4527  29.9030 0006023 292.6870  67.3717 14.99364891384616"}}, "geometry": {"type": "Point", "coordinates": [29.811058033180903, 4.600983614334542]}}, {"type": "Feature", "properties": {"norad_id": 43831, "name": "SAUDISAT 5A", "group": "resource", "lat": 2.1030703641582917, "lon": -124.09732423609977, "alt_km": 496.2360300517348, "timestamp": "2025-12-21T14:40:47.568443+00:00", "meta": {"OBJECT_NAME": "SAUDISAT 5A", "OBJECT_ID": "2018-102A", "EPOCH": "2025-12-21T07:36:29.118816", "MEAN_MOTION": 15.25753657, "ECCENTRICITY": 0.00113485, "INCLINATION": 97.3341, "RA_OF_ASC_NODE": 55.3427, "ARG_OF_PERICENTER": 49.7933, "MEAN_ANOMALY": 310.4297, "EPHEMERIS_TYPE": 0, "CLASSIFICATION_TYPE": "U", "NORAD_CAT_ID": 43831, "ELEMENT_SET_NO": 999, "REV_AT_EPOCH": 38853, "BSTAR": 0.00019333194, "MEAN_MOTION_DOT": 4.871e-05, "MEAN_MOTION_DDOT": 0}, "tle": {"line1": "1 43831U 18102A   25355.31700369  .00004871  00000+0  19333-3 0  9991", "line2": "2 43831  97.3341  55.3427 0011348  49.7933 310.4297 15.25753657388535"}}, "geometry": {"type": "Point", "coordinates": [-124.09732423609977, 2.1030703641582917]}}, {"type": "Feature", "properties": {"norad_id": 43833, "name": "SAUDISAT 5B", "group": "resource", "lat": -60.27263663354352, "lon": -134.6667892861712, "alt_km": 502.81233861179044, "timestamp": "2025-12-21T14:40:47.568453+00:00", "meta": {"OBJECT_NAME": "SAUDISAT 5B", "OBJECT_ID": "2018-102C", "EPOCH": "2025-12-21T05:45:31.973760", "MEAN_MOTION": 15.2610155, "ECCENTRICITY": 0.00120751, "INCLINATION": 97.3436, "RA_OF_ASC_NODE": 58.021, "ARG_OF_PERICENTER": 52.0559, "MEAN_ANOMALY": 308.1769, "EPHEMERIS_TYPE": 0, "CLASSIFICATION_TYPE": "U", "NORAD_CAT_ID": 43833, "ELEMENT_SET_NO": 999, "REV_AT_EPOCH": 38863, "BSTAR": 0.00018134127, "MEAN_MOTION_DOT": 4.613e-05, "MEAN_MOTION_DDOT": 0}, "tle": {"line1": "1 43833U 18102C   25355.23995340  .00004613  00000+0  18134-3 0  9991", "line2": "2 43833  97.3436  58.0210 0012075  52.0559 308.1769 15.26101550388630"}}, "geometry": {"type": "Point", "coordinates": [-134.6667892861712, -60.27263663354352]}}, {"type": "Feature", "properties": {"norad_id": 44622, "name": "GAOFEN-10R", "group": "resource", "lat": -64.15669909235501, "lon": 106.20965854434274, "alt_km": 630.9793011865831, "timestamp": "2025-12-21T14:40:47.568464+00:00", "meta": {"OBJECT_NAME": "GAOFEN-10R", "OBJECT_ID": "2019-066A", "EPOCH": "2025-12-21T07:05:55.066272", "MEAN_MOTION": 14.8281884, "ECCENTRICITY": 0.00072949, "INCLINATION": 98.029, "RA_OF_ASC_NODE": 302.8358, "ARG_OF_PERICENTER": 17.039, "MEAN_ANOMALY": 343.1066, "EPHEMERIS_TYPE": 0, "CLASSIFICATION_TYPE": "U", "NORAD_CAT_ID": 44622, "ELEMENT_SET_NO": 999, "REV_AT_EPOCH": 33601, "BSTAR": 0.00015985959, "MEAN_MOTION_DOT": 1.239e-05, "MEAN_MOTION_DDOT": 0}, "tle": {"line1": "1 44622U 19066A   25355.29577623  .00001239  00000+0  15986-3 0  9997", "line2": "2 44622  98.0290 302.8358 0007294  17.0390 343.1066 14.82818840336019"}}, "geometry": {"type": "Point", "coordinates": [106.20965854434274, -64.15669909235501]}}]}